{"type": "FeatureCollection", "features": [ {"type": "Feature", "properties": {"norad_id": 31477, "name": "FENGYUN 1C DEB", "group": "fengyun-1c-debris", "lat": 36.62364513345461, "lon": -15.63964244870852, "alt_km": 829.194542772505, "timestamp": "2025-12-27T16:33:30.505092+00:00", "meta": {"OBJECT_NAME": "FENGYUN 1C DEB", "OBJECT_ID": "1999-025BVR", "EPOCH": "2025-12-23T16:32:04.337376", "MEAN_MOTION": 14.02935294, "ECCENTRICITY": 0.01097133, "INCLINATION": 98.8872, "RA_OF_ASC_NODE": 347.133, "ARG_OF_PERICENTER": 358.4238, "MEAN_ANOMALY": 1.6568, "EPHEMERIS_TYPE": 0, "CLASSIFICATION_TYPE": "U", "NORAD_CAT_ID": 31477, "ELEMENT_SET_NO": 999, "REV_AT_EPOCH": 95557, "BSTAR": 0.00038195011, "MEAN_MOTION_DOT": 5.81e-06, "MEAN_MOTION_DDOT": 0}, "tle": {"line1": "1 31477U 99025BVR 25357.68893909  .00000581  00000+0  38195-3 0  9993", "line2": "2 31477  98.8872 347.1330 0109713 358.4238   1.6568 14.02935294955577"}}, "geometry": {"type": "Point", "coordinates": [-15.63964244870852, 36.62364513345461]}}, {"type": "Feature", "properties": {"norad_id": 31480, "name": "FENGYUN 1C DEB", "group": "fengyun-1c-debris", "lat": 78.57079241504637, "lon": 164.83322010336667, "alt_km": 945.3999180554856, "timestamp": "2025-12-27T16:33:30.505103+00:00", "meta": {"OBJECT_NAME": "FENGYUN 1C DEB", "OBJECT_ID": "1999-025BVU", "EPOCH": "2025-12-27T00:35:52.811520", "MEAN_MOTION": 13.90065335, "ECCENTRICITY": 0.03434781, "INCLINATION": 98.3397, "RA_OF_ASC_NODE": 210.7506, "ARG_OF_PERICENTER": 181.5484, "MEAN_ANOMALY": 178.4644, "EPHEMERIS_TYPE": 0, "CLASSIFICATION_TYPE": "U", "NORAD_CAT_ID": 31480, "ELEMENT_SET_NO": 999, "REV_AT_EPOCH": 93594, "BSTAR": 0.0031009781, "MEAN_MOTION_DOT": 6.13e-05, "MEAN_MOTION_DDOT": 0}, "tle": {"line1": "1 31480U 99025BVU 25361.02491680  .00006130  00000+0  31010-2 0  9994", "line2": "2 31480  98.3397 210.7506 0343478 181.5484 178.4644 13.90065335935947"}}, "geometry": {"type": "Point", "coordinates": [164.83322010336667, 78.57079241504637]}}, {"type": "Feature", "properties": {"norad_id": 31482, "name": "FENGYUN 1C DEB", "group": "fengyun-1c-debris", "lat": 81.47019522140974, "lon": -74.32996822205942, "alt_km": 819.3884570192959, "timestamp": "2025-12-27T16:33:30.505113+00:00", "meta": {"OBJECT_NAME": "FENGYUN 1C DEB", "OBJECT_ID": "1999-025BVW", "EPOCH": "2025-12-26T23:40:55.517088", "MEAN_MOTION": 14.3571403, "ECCENTRICITY": 0.0088802, "INCLINATION": 98.3826, "RA_OF_ASC_NODE": 4.4462, "ARG_OF_PERICENTER": 239.3288, "MEAN_ANOMALY": 177.2944, "EPHEMERIS_TYPE": 0, "CLASSIFICATION_TYPE": "U", "NORAD_CAT_ID": 31482, "ELEMENT_SET_NO": 999, "REV_AT_EPOCH": 97334, "BSTAR": 0.00071583, "MEAN_MOTION_DOT": 2.119e-05, "MEAN_MOTION_DDOT": 0}, "tle": {"line1": "1 31482U 99025BVW 25360.98675367  .00002119  00000+0  71583-3 0  9999", "line2": "2 31482  98.3826   4.4462 0088802 239.3288 177.2944 14.35714030973345"}}, "geometry": {"type": "Point", "coordinates": [-74.32996822205942, 81.47019522140974]}}, {"type": "Feature", "properties": {"norad_id": 31483, "name": "FENGYUN 1C DEB", "group": "fengyun-1c-debris", "lat": -26.33993631748911, "lon": -35.76598399934625, "alt_km": 916.7358063807624, "timestamp": "2025-12-27T16:33:30.505123+00:00", "meta": {"OBJECT_NAME": "FENGYUN 1C DEB", "OBJECT_ID": "1999-025BVX", "EPOCH": "2025-12-25T16:20:58.735104", "MEAN_MOTION": 14.16165365, "ECCENTRICITY": 0.01178017, "INCLINATION": 102.5049, "RA_OF_ASC_NODE": 315.1162, "ARG_OF_PERICENTER": 188.5674, "MEAN_ANOMALY": 347.9676, "EPHEMERIS_TYPE": 0, "CLASSIFICATION_TYPE": "U", "NORAD_CAT_ID": 31483, "ELEMENT_SET_NO": 999, "REV_AT_EPOCH": 94889, "BSTAR": 0.002430612, "MEAN_MOTION_DOT": 5.074e-05, "MEAN_MOTION_DDOT": 0}, "tle": {"line1": "1 31483U 99025BVX 25359.68123536  .00005074  00000+0  24306-2 0  9994", "line2": "2 31483 102.5049 315.1162 0117801 188.5674 347.9676 14.16165365948896"}}, "geometry": {"type": "Point", "coordinates": [-35.76598399934625, -26.33993631748911]}}, {"type": "Feature", "properties": {"norad_id": 31484, "name": "FENGYUN 1C DEB", "group": "fengyun-1c-debris", "lat": 48.825639380223365, "lon": -69.80635961310631, "alt_km": 689.4939577431387, "timestamp": "2025-12-27T16:33:30.505134+00:00", "meta": {"OBJECT_NAME": "FENGYUN 1C DEB", "OBJECT_ID": "1999-025BVY", "EPOCH": "2025-12-23T01:26:10.111200", "MEAN_MOTION": 14.50731885, "ECCENTRICITY": 0.00830007, "INCLINATION": 101.8064, "RA_OF_ASC_NODE": 297.5559, "ARG_OF_PERICENTER": 124.1407, "MEAN_ANOMALY": 236.7682, "EPHEMERIS_TYPE": 0, "CLASSIFICATION_TYPE": "U", "NORAD_CAT_ID": 31484, "ELEMENT_SET_NO": 999, "REV_AT_EPOCH": 64387, "BSTAR": 0.0046453294, "MEAN_MOTION_DOT": 0.00019079, "MEAN_MOTION_DDOT": 0}, "tle": {"line1": "1 31484U 99025BVY 25357.05983925  .00019079  00000+0  46453-2 0  9997", "line2": "2 31484 101.8064 297.5559 0083000 124.1407 236.7682 14.50731885643878"}}, "geometry": {"type": "Point", "coordinates": [-69.80635961310631, 48.825639380223365]}}, {"type": "Feature", "properties": {"norad_id": 31485, "name": "FENGYUN 1C DEB", "group": "fengyun-1c-debris", "lat": -37.385672269696556, "lon": -157.31535114453976, "alt_km": 836.1898778025316, "timestamp": "2025-12-27T16:33:30.505144+00:00", "meta": {"OBJECT_NAME": "FENGYUN 1C DEB", "OBJECT_ID": "1999-025BVZ", "EPOCH": "2025-12-26T08:29:24.129600", "MEAN_MOTION": 13.40108445, "ECCENTRICITY": 0.0446295, "INCLINATION": 102.7183, "RA_OF_ASC_NODE": 191.0703, "ARG_OF_PERICENTER": 289.5865, "MEAN_ANOMALY": 65.7598, "EPHEMERIS_TYPE": 0, "CLASSIFICATION_TYPE": "U", "NORAD_CAT_ID": 31485, "ELEMENT_SET_NO": 999, "REV_AT_EPOCH": 90627, "BSTAR": 0.0027701, "MEAN_MOTION_DOT": 2.642e-05, "MEAN_MOTION_DDOT": 0}, "tle": {"line1": "1 31485U 99025BVZ 25360.35375150  .00002642  00000+0  27701-2 0  9993", "line2": "2 31485 102.7183 191.0703 0446295 289.5865  65.7598 13.40108445906273"}}, "geometry": {"type": "Point", "coordinates": [-157.31535114453976, -37.385672269696556]}}, {"type": "Feature", "properties": {"norad_id": 31487, "name": "FENGYUN 1C DEB", "group": "fengyun-1c-debris", "lat": -58.79399810650001, "lon": -163.3276357037697, "alt_km": 831.3661165483736, "timestamp": "2025-12-27T16:33:30.505154+00:00", "meta": {"OBJECT_NAME": "FENGYUN 1C DEB", "OBJECT_ID": "1999-025BWB", "EPOCH": "2025-12-26T18:35:52.920384", "MEAN_MOTION": 13.97795775, "ECCENTRICITY": 0.01193896, "INCLINATION": 102.4139, "RA_OF_ASC_NODE": 174.1183, "ARG_OF_PERICENTER": 273.1497, "MEAN_ANOMALY": 102.9015, "EPHEMERIS_TYPE": 0, "CLASSIFICATION_TYPE": "U", "NORAD_CAT_ID": 31487, "ELEMENT_SET_NO": 999, "REV_AT_EPOCH": 94608, "BSTAR": 0.0017913664, "MEAN_MOTION_DOT": 2.62e-05, "MEAN_MOTION_DDOT": 0}, "tle": {"line1": "1 31487U 99025BWB 25360.77491806  .00002620  00000+0  17914-2 0  9999", "line2": "2 31487 102.4139 174.1183 0119389 273.1497 102.9015 13.97795775946089"}}, "geometry": {"type": "Point", "coordinates": [-163.3276357037697, -58.79399810650001]}}, {"type": "Feature", "properties": {"norad_id": 31491, "name": "FENGYUN 1C DEB", "group": "fengyun-1c-debris", "lat": 73.12063521342785, "lon": 123.7096065492619, "alt_km": 846.2282808506961, "timestamp": "2025-12-27T16:33:30.505164+00:00", "meta": {"OBJECT_NAME": "FENGYUN 1C DEB", "OBJECT_ID": "1999-025BWE", "EPOCH": "2025-12-25T23:24:11.230272", "MEAN_MOTION": 14.17348825, "ECCENTRICITY": 0.0050191, "INCLINATION": 99.3079, "RA_OF_ASC_NODE": 269.1977, "ARG_OF_PERICENTER": 230.8309, "MEAN_ANOMALY": 128.84, "EPHEMERIS_TYPE": 0, "CLASSIFICATION_TYPE": "U", "NORAD_CAT_ID": 31491, "ELEMENT_SET_NO": 999, "REV_AT_EPOCH": 63915, "BSTAR": 0.0017221, "MEAN_MOTION_DOT": 3.48e-05, "MEAN_MOTION_DDOT": 0}, "tle": {"line1": "1 31491U 99025BWE 25359.97512998  .00003480  00000+0  17221-2 0  9996", "line2": "2 31491  99.3079 269.1977 0050191 230.8309 128.8400 14.17348825639159"}}, "geometry": {"type": "Point", "coordinates": [123.7096065492619, 73.12063521342785]}}, {"type": "Feature", "properties": {"norad_id": 31492, "name": "FENGYUN 1C DEB", "group": "fengyun-1c-debris", "lat": 3.889690231724467, "lon": 168.39507730636987, "alt_km": 625.4491532871189, "timestamp": "2025-12-27T16:33:30.505174+00:00", "meta": {"OBJECT_NAME": "FENGYUN 1C DEB", "OBJECT_ID": "1999-025BWF", "EPOCH": "2025-12-22T22:16:59.719872", "MEAN_MOTION": 14.71117312, "ECCENTRICITY": 0.00645708, "INCLINATION": 98.856, "RA_OF_ASC_NODE": 163.8283, "ARG_OF_PERICENTER": 336.971, "MEAN_ANOMALY": 22.8602, "EPHEMERIS_TYPE": 0, "CLASSIFICATION_TYPE": "U", "NORAD_CAT_ID": 31492, "ELEMENT_SET_NO": 999, "REV_AT_EPOCH": 96656, "BSTAR": 0.0033267446, "MEAN_MOTION_DOT": 0.00021138, "MEAN_MOTION_DDOT": 0}, "tle": {"line1": "1 31492U 99025BWF 25356.92846898  .00021138  00000+0  33267-2 0  9996", "line2": "2 31492  98.8560 163.8283 0064570 336.9710  22.8602 14.71117312966569"}}, "geometry": {"type": "Point", "coordinates": [168.39507730636987, 3.889690231724467]}}, {"type": "Feature", "properties": {"norad_id": 31493, "name": "FENGYUN 1C DEB", "group": "fengyun-1c-debris", "lat": 77.63930658414931, "lon": -105.7370257773234, "alt_km": 858.6385926830098, "timestamp": "2025-12-27T16:33:30.505184+00:00", "meta": {"OBJECT_NAME": "FENGYUN 1C DEB", "OBJECT_ID": "1999-025BWG", "EPOCH": "2025-12-27T02:22:15.048192", "MEAN_MOTION": 13.92999476, "ECCENTRICITY": 0.01174154, "INCLINATION": 100.1376, "RA_OF_ASC_NODE": 308.3446, "ARG_OF_PERICENTER": 137.5196, "MEAN_ANOMALY": 223.5121, "EPHEMERIS_TYPE": 0, "CLASSIFICATION_TYPE": "U", "NORAD_CAT_ID": 31493, "ELEMENT_SET_NO": 999, "REV_AT_EPOCH": 60066, "BSTAR": 0.00080065101, "MEAN_MOTION_DOT": 1.05e-05, "MEAN_MOTION_DDOT": 0}, "tle": {"line1": "1 31493U 99025BWG 25361.09878528  .00001050  00000+0  80065-3 0  9996", "line2": "2 31493 100.1376 308.3446 0117415 137.5196 223.5121 13.92999476600662"}}, "geometry": {"type": "Point", "coordinates": [-105.7370257773234, 77.63930658414931]}}]}